{
  "type": "FeatureCollection",
  "features": [
    {
      "type": "Feature",
      "properties": {
        "norad_id": 41581,
        "name": "INTELSAT 31 (IS-31)",
        "group": "intelsat",
        "lat": 0.01031870304880268,
        "lon": 98.61054477951359,
        "alt_km": 35790.96981371144,
        "timestamp": "2025-12-09T07:41:32.871347+00:00",
        "meta_object_name": "INTELSAT 31 (IS-31)",
        "meta_object_id": "2016-035A",
        "meta_epoch": "2025-12-08T21:42:47.389824",
        "meta_mean_motion": 1.0026923,
        "meta_eccentricity": 0.00018977,
        "meta_inclination": 0.019,
        "meta_ra_of_asc_node": 270.8966,
        "meta_arg_of_pericenter": 308.7352,
        "meta_mean_anomaly": 88.9054,
        "meta_ephemeris_type": 0,
        "meta_classification_type": "U",
        "meta_norad_cat_id": 41581,
        "meta_element_set_no": 999,
        "meta_rev_at_epoch": 3477,
        "meta_bstar": 0,
        "meta_mean_motion_dot": -1.48e-06,
        "meta_mean_motion_ddot": 0,
        "tle_line1": "1 41581U 16035A   25342.90471516 -.00000148  00000+0  00000+0 0  9995",
        "tle_line2": "2 41581   0.0190 270.8966 0001897 308.7352  88.9054  1.00269230 34770"
      },
      "geometry": {
        "type": "Point",
        "coordinates": [
          98.61054477951359,
          0.01031870304880268
        ]
      }
    },
    {
      "type": "Feature",
      "properties": {
        "norad_id": 41747,
        "name": "INTELSAT 36 (IS-36)",
        "group": "intelsat",
        "lat": -0.031949656259427056,
        "lon": -97.82160053953041,
        "alt_km": 35783.10737390611,
        "timestamp": "2025-12-09T07:41:32.871358+00:00",
        "meta_object_name": "INTELSAT 36 (IS-36)",
        "meta_object_id": "2016-053A",
        "meta_epoch": "2025-12-08T12:13:07.705344",
        "meta_mean_motion": 1.0026981,
        "meta_eccentricity": 0.0001378,
        "meta_inclination": 0.0114,
        "meta_ra_of_asc_node": 350.963,
        "meta_arg_of_pericenter": 324.2523,
        "meta_mean_anomaly": 14.0801,
        "meta_ephemeris_type": 0,
        "meta_classification_type": "U",
        "meta_norad_cat_id": 41747,
        "meta_element_set_no": 999,
        "meta_rev_at_epoch": 3403,
        "meta_bstar": 0,
        "meta_mean_motion_dot": -2.2e-07,
        "meta_mean_motion_ddot": 0,
        "tle_line1": "1 41747U 16053A   25342.50911696 -.00000022  00000+0  00000+0 0  9994",
        "tle_line2": "2 41747   0.0114 350.9630 0001378 324.2523  14.0801  1.00269810 34038"
      },
      "geometry": {
        "type": "Point",
        "coordinates": [
          -97.82160053953041,
          -0.031949656259427056
        ]
      }
    },
    {
      "type": "Feature",
      "properties": {
        "norad_id": 41945,
        "name": "INTELSAT 32E (IS-32E)",
        "group": "intelsat",
        "lat": 0.02663113512637046,
        "lon": 150.53165269877016,
        "alt_km": 35786.768341212446,
        "timestamp": "2025-12-09T07:41:32.871370+00:00",
        "meta_object_name": "INTELSAT 32E (IS-32E)",
        "meta_object_id": "2017-007B",
        "meta_epoch": "2025-12-08T09:58:28.100928",
        "meta_mean_motion": 1.00273553,
        "meta_eccentricity": 2.799e-05,
        "meta_inclination": 0.0258,
        "meta_ra_of_asc_node": 66.5377,
        "meta_arg_of_pericenter": 242.4063,
        "meta_mean_anomaly": 234.9251,
        "meta_ephemeris_type": 0,
        "meta_classification_type": "U",
        "meta_norad_cat_id": 41945,
        "meta_element_set_no": 999,
        "meta_rev_at_epoch": 3231,
        "meta_bstar": 0,
        "meta_mean_motion_dot": -2.66e-06,
        "meta_mean_motion_ddot": 0,
        "tle_line1": "1 41945U 17007B   25342.41560302 -.00000266  00000+0  00000+0 0  9998",
        "tle_line2": "2 41945   0.0258  66.5377 0000279 242.4063 234.9251  1.00273553 32314"
      },
      "geometry": {
        "type": "Point",
        "coordinates": [
          150.53165269877016,
          0.02663113512637046
        ]
      }
    },
    {
      "type": "Feature",
      "properties": {
        "norad_id": 42818,
        "name": "INTELSAT 35E (IS-35E)",
        "group": "intelsat",
        "lat": -0.004422173927527675,
        "lon": 159.1704973917876,
        "alt_km": 35789.2745622165,
        "timestamp": "2025-12-09T07:41:32.871382+00:00",
        "meta_object_name": "INTELSAT 35E (IS-35E)",
        "meta_object_id": "2017-041A",
        "meta_epoch": "2025-12-08T15:08:58.363584",
        "meta_mean_motion": 1.00269468,
        "meta_eccentricity": 0.00023338,
        "meta_inclination": 0.0186,
        "meta_ra_of_asc_node": 327.2982,
        "meta_arg_of_pericenter": 296.4588,
        "meta_mean_anomaly": 6.6258,
        "meta_ephemeris_type": 0,
        "meta_classification_type": "U",
        "meta_norad_cat_id": 42818,
        "meta_element_set_no": 999,
        "meta_rev_at_epoch": 3090,
        "meta_bstar": 0,
        "meta_mean_motion_dot": -2.36e-06,
        "meta_mean_motion_ddot": 0,
        "tle_line1": "1 42818U 17041A   25342.63123106 -.00000236  00000+0  00000+0 0  9994",
        "tle_line2": "2 42818   0.0186 327.2982 0002333 296.4588   6.6258  1.00269468 30901"
      },
      "geometry": {
        "type": "Point",
        "coordinates": [
          159.1704973917876,
          -0.004422173927527675
        ]
      }
    },
    {
      "type": "Feature",
      "properties": {
        "norad_id": 42950,
        "name": "INTELSAT 37E (IS-37E)",
        "group": "intelsat",
        "lat": 0.0006984471633754898,
        "lon": 175.65772775558278,
        "alt_km": 35783.3652849755,
        "timestamp": "2025-12-09T07:41:32.871394+00:00",
        "meta_object_name": "INTELSAT 37E (IS-37E)",
        "meta_object_id": "2017-059A",
        "meta_epoch": "2025-12-08T22:04:45.286176",
        "meta_mean_motion": 1.00270707,
        "meta_eccentricity": 0.00034017,
        "meta_inclination": 0.0173,
        "meta_ra_of_asc_node": 5.1325,
        "meta_arg_of_pericenter": 248.3233,
        "meta_mean_anomaly": 137.6522,
        "meta_ephemeris_type": 0,
        "meta_classification_type": "U",
        "meta_norad_cat_id": 42950,
        "meta_element_set_no": 999,
        "meta_rev_at_epoch": 3015,
        "meta_bstar": 0,
        "meta_mean_motion_dot": -1.39e-06,
        "meta_mean_motion_ddot": 0,
        "tle_line1": "1 42950U 17059A   25342.91996859 -.00000139  00000+0  00000+0 0  9996",
        "tle_line2": "2 42950   0.0173   5.1325 0003401 248.3233 137.6522  1.00270707 30151"
      },
      "geometry": {
        "type": "Point",
        "coordinates": [
          175.65772775558278,
          0.0006984471633754898
        ]
      }
    },
    {
      "type": "Feature",
      "properties": {
        "norad_id": 43632,
        "name": "AZERSPACE 2 (IS-38)",
        "group": "intelsat",
        "lat": -0.038451061157755415,
        "lon": -121.20129506444287,
        "alt_km": 35780.2804487358,
        "timestamp": "2025-12-09T07:41:32.871406+00:00",
        "meta_object_name": "AZERSPACE 2 (IS-38)",
        "meta_object_id": "2018-074A",
        "meta_epoch": "2025-12-08T22:09:38.665152",
        "meta_mean_motion": 1.00270137,
        "meta_eccentricity": 0.00015706,
        "meta_inclination": 0.0183,
        "meta_ra_of_asc_node": 335.8679,
        "meta_arg_of_pericenter": 283.5825,
        "meta_mean_anomaly": 195.9932,
        "meta_ephemeris_type": 0,
        "meta_classification_type": "U",
        "meta_norad_cat_id": 43632,
        "meta_element_set_no": 999,
        "meta_rev_at_epoch": 2654,
        "meta_bstar": 0,
        "meta_mean_motion_dot": 1.39e-06,
        "meta_mean_motion_ddot": 0,
        "tle_line1": "1 43632U 18074A   25342.92336418  .00000139  00000+0  00000+0 0  9991",
        "tle_line2": "2 43632   0.0183 335.8679 0001570 283.5825 195.9932  1.00270137 26545"
      },
      "geometry": {
        "type": "Point",
        "coordinates": [
          -121.20129506444287,
          -0.038451061157755415
        ]
      }
    },
    {
      "type": "Feature",
      "properties": {
        "norad_id": 43633,
        "name": "HORIZONS-3E",
        "group": "intelsat",
        "lat": 0.02048696665652036,
        "lon": 2.715992788104443,
        "alt_km": 35785.50988112979,
        "timestamp": "2025-12-09T07:41:32.871418+00:00",
        "meta_object_name": "HORIZONS-3E",
        "meta_object_id": "2018-074B",
        "meta_epoch": "2025-12-08T14:38:38.662944",
        "meta_mean_motion": 1.00267707,
        "meta_eccentricity": 0.0001331,
        "meta_inclination": 0.0425,
        "meta_ra_of_asc_node": 176.8531,
        "meta_arg_of_pericenter": 113.5784,
        "meta_mean_anomaly": 175.8576,
        "meta_ephemeris_type": 0,
        "meta_classification_type": "U",
        "meta_norad_cat_id": 43633,
        "meta_element_set_no": 999,
        "meta_rev_at_epoch": 2643,
        "meta_bstar": 0,
        "meta_mean_motion_dot": -2.9e-07,
        "meta_mean_motion_ddot": 0,
        "tle_line1": "1 43633U 18074B   25342.61016971 -.00000029  00000+0  00000+0 0  9996",
        "tle_line2": "2 43633   0.0425 176.8531 0001331 113.5784 175.8576  1.00267707 26434"
      },
      "geometry": {
        "type": "Point",
        "coordinates": [
          2.715992788104443,
          0.02048696665652036
        ]
      }
    }
  ]
}